SEEDS II (CO-66)        
1 32791U 08021J   26068.92109284  .00023758  00000+0  84213-3 0  9995
2 32791  97.7519  62.3611 0001448 359.2618   0.8619 15.29097235972108
STARLINK-36063          
1 66606U 25270U   26068.00766683  .00022481  00000+0  82352-3 0  9997
2 66606  42.9991  59.8441 0000501 247.3094 112.7705 15.27597926 17606
